OBJECT_NAME,OBJECT_ID,EPOCH,MEAN_MOTION,ECCENTRICITY,INCLINATION,RA_OF_ASC_NODE,ARG_OF_PERICENTER,MEAN_ANOMALY,EPHEMERIS_TYPE,CLASSIFICATION_TYPE,NORAD_CAT_ID,ELEMENT_SET_NO,REV_AT_EPOCH,BSTAR,MEAN_MOTION_DOT,MEAN_MOTION_DDOT,GROUP
STARLINK-3783,2022-041X,2026-05-02T23:12:41.559552,15.08838821,0.00012409,53.2171,215.4599,90.4353,269.6781,0,U,52282,999,22269,2.226183e-05,6.6e-07,0.0,Active Satellites
STARLINK-3789,2022-041Y,2026-05-02T23:32:35.617056,15.08818226,0.00011675,53.2164,225.3906,64.6022,295.5091,0,U,52283,999,22256,-9.5326776e-05,-1.804e-05,0.0,Active Satellites
STARLINK-3561,2022-041Z,2026-05-02T13:29:46.224384,15.08841355,0.0001156,53.2155,217.2742,92.8194,267.293,0,U,52284,999,22263,0.0001215,1.646e-05,0.0,Active Satellites
STARLINK-3802,2022-041AB,2026-05-03T05:13:02.349120,15.08832997,0.00011949,53.2172,214.3356,87.3367,272.7762,0,U,52286,999,22273,1.989957e-06,-2.56e-06,0.0,Active Satellites
STARLINK-3822,2022-041AC,2026-05-03T07:13:35.824512,15.08837078,0.00012214,53.2173,223.9588,90.1287,269.9845,0,U,52287,999,22261,-2.1186677e-05,-6.25e-06,0.0,Active Satellites
STARLINK-3776,2022-041AD,2026-05-03T06:43:07.298112,15.08835846,0.00013308,53.2166,214.0568,85.852,274.2624,0,U,52288,999,22274,-1.6177436e-05,-5.45e-06,0.0,Active Satellites
STARLINK-3751,2022-041AE,2026-05-03T05:28:56.383104,15.08835311,7.765e-05,53.216,214.2847,84.5506,275.5575,0,U,52289,999,22273,4.0707223e-05,3.6e-06,0.0,Active Satellites
STARLINK-3772,2022-041AF,2026-05-03T06:28:36.132960,15.08838816,0.0001166,53.2164,214.0995,86.5044,273.6082,0,U,52290,999,22274,-9.085258e-06,-4.32e-06,0.0,Active Satellites
STARLINK-3753,2022-041AH,2026-05-03T06:21:55.662048,15.08835764,0.00015843,53.2169,214.1186,104.302,255.8148,0,U,52292,999,22274,9.8704132e-05,1.283e-05,0.0,Active Satellites
STARLINK-3771,2022-041AJ,2026-05-03T06:39:12.003264,15.08844142,0.00012181,53.2181,214.0762,88.9608,271.1523,0,U,52293,999,22274,1.7266353e-05,-1.3e-07,0.0,Active Satellites
STARLINK-3777,2022-041AK,2026-05-03T06:16:37.598592,15.08840448,0.00012794,53.2186,214.1359,94.9141,265.1998,0,U,52294,999,22274,4.78717e-07,-2.8e-06,0.0,Active Satellites
STARLINK-3765,2022-041AL,2026-05-03T06:32:31.704288,15.08835672,0.00010818,53.2179,214.0869,84.1771,275.9345,0,U,52295,999,22274,-4.6381467e-05,-1.026e-05,0.0,Active Satellites
STARLINK-3766,2022-041AM,2026-05-02T23:39:11.281536,15.08837618,0.0001158,53.2184,215.3809,94.8054,265.307,0,U,52296,999,22270,9.4669e-06,-1.37e-06,0.0,Active Satellites
STARLINK-3758,2022-041AN,2026-05-02T09:47:12.770880,15.08837206,0.00015573,53.2188,217.9689,116.4028,243.7125,0,U,52297,999,22261,-1.8536052e-05,-5.83e-06,0.0,Active Satellites
STARLINK-3760,2022-041AP,2026-05-03T06:37:45.566112,15.08837661,0.00010654,53.2185,213.6837,80.7749,279.3364,0,U,52298,999,22275,-3.035181e-05,-7.71e-06,0.0,Active Satellites
STARLINK-3769,2022-041AR,2026-05-03T05:44:50.095680,15.08839093,0.00016925,53.2173,214.2406,54.7961,305.319,0,U,52300,999,22396,0.00016691716,2.369e-05,0.0,Active Satellites
STARLINK-3768,2022-041AS,2026-05-03T06:11:19.506624,15.08840675,0.0001562,53.217,214.1525,94.8996,265.2174,0,U,52301,999,22274,6.623565e-06,-1.83e-06,0.0,Active Satellites
STARLINK-3564,2022-041AT,2026-05-03T05:30:14.998464,15.08844524,0.0001231,53.2178,204.2822,87.0282,273.0851,0,U,52302,999,22287,3.0012932e-05,1.9e-06,0.0,Active Satellites
STARLINK-3742,2022-041AU,2026-05-03T05:50:07.983744,15.08838638,0.00013034,53.2177,214.2205,82.5556,277.5585,0,U,52303,999,22396,4.3913465e-05,4.11e-06,0.0,Active Satellites
STARLINK-3744,2022-041AV,2026-05-02T23:03:24.717600,15.08841147,0.00011784,53.2166,205.4901,88.9242,271.1885,0,U,52304,999,22283,2.909148e-06,-2.42e-06,0.0,Active Satellites
STARLINK-3724,2022-041AW,2026-05-02T23:33:54.238464,15.08839586,0.00012948,53.2179,215.5015,86.58,273.534,0,U,52305,999,22270,4.8554329e-05,4.85e-06,0.0,Active Satellites
STARLINK-3747,2022-041AX,2026-05-02T22:58:07.033440,15.08838718,0.00011665,53.2165,205.5056,92.3016,267.811,0,U,52306,999,22405,3.133024e-06,-2.38e-06,0.0,Active Satellites
STARLINK-3755,2022-041AY,2026-05-02T23:17:59.106336,15.08838395,0.0001147,53.2176,215.4398,93.0945,267.0178,0,U,52307,999,22270,1.6518616e-05,-2.5e-07,0.0,Active Satellites
STARLINK-3756,2022-041BA,2026-05-03T05:14:21.774912,15.08841923,0.00011453,53.2177,204.3313,89.2035,270.9088,0,U,52309,999,22409,1.8086775e-05,0.0,0.0,Active Satellites
STARLINK-3688,2022-041BB,2026-05-03T05:09:04.423392,15.08839034,0.00012365,53.2154,204.4136,86.437,273.6763,0,U,52310,999,22409,1.7665575e-05,-7e-08,0.0,Active Satellites
STARLINK-3750,2022-041BC,2026-05-02T22:42:13.467744,15.08842825,0.0001284,53.2172,205.5558,87.0781,273.0358,0,U,52311,999,22405,0.00015794,2.227e-05,0.0,Active Satellites
STARLINK-3752,2022-041BD,2026-05-03T05:40:50.658816,15.08838307,0.00013845,53.2174,204.2008,91.0279,269.0872,0,U,52312,999,22410,5.090173e-06,-2.07e-06,0.0,Active Satellites
STARLINK-3749,2022-041BE,2026-05-03T05:46:09.209568,15.08837698,0.00013448,53.2183,204.2318,93.5377,266.5769,0,U,52313,999,22410,2.4938783e-05,1.09e-06,0.0,Active Satellites
