[ {"name": "STARLINK-3783", "line1": "1 52282U 22041X   26122.96714768  .00000066  00000+0  22262-4 0  9998", "line2": "2 52282  53.2171 215.4599 0001240  90.4353 269.6781 15.08838821222690"}, {"name": "STARLINK-3789", "line1": "1 52283U 22041Y   26122.98096779 -.00001804  00000+0 -95327-4 0  9991", "line2": "2 52283  53.2164 225.3906 0001167  64.6022 295.5091 15.08818226222564"}, {"name": "STARLINK-3561", "line1": "1 52284U 22041Z   26122.56234056  .00001646  00000+0  12150-3 0  9992", "line2": "2 52284  53.2155 217.2742 0001156  92.8194 267.2930 15.08841355222639"}, {"name": "STARLINK-3802", "line1": "1 52286U 22041AB  26123.21738830 -.00000256  00000+0  19900-5 0  9995", "line2": "2 52286  53.2172 214.3356 0001194  87.3367 272.7762 15.08832997222739"}, {"name": "STARLINK-3822", "line1": "1 52287U 22041AC  26123.30110908 -.00000625  00000+0 -21187-4 0  9996", "line2": "2 52287  53.2173 223.9588 0001221  90.1287 269.9845 15.08837078222610"}, {"name": "STARLINK-3776", "line1": "1 52288U 22041AD  26123.27994558 -.00000545  00000+0 -16177-4 0  9998", "line2": "2 52288  53.2166 214.0568 0001330  85.8520 274.2624 15.08835846222743"}, {"name": "STARLINK-3751", "line1": "1 52289U 22041AE  26123.22843036  .00000360  00000+0  40707-4 0  9997", "line2": "2 52289  53.2160 214.2847 0000776  84.5506 275.5575 15.08835311222738"}, {"name": "STARLINK-3772", "line1": "1 52290U 22041AF  26123.26986265 -.00000432  00000+0 -90853-5 0  9995", "line2": "2 52290  53.2164 214.0995 0001166  86.5044 273.6082 15.08838816222745"}, {"name": "STARLINK-3753", "line1": "1 52292U 22041AH  26123.26522757  .00001283  00000+0  98704-4 0  9994", "line2": "2 52292  53.2169 214.1186 0001584 104.3020 255.8148 15.08835764222746"}, {"name": "STARLINK-3771", "line1": "1 52293U 22041AJ  26123.27722226 -.00000013  00000+0  17266-4 0  9994", "line2": "2 52293  53.2181 214.0762 0001218  88.9608 271.1523 15.08844142222741"}, {"name": "STARLINK-3777", "line1": "1 52294U 22041AK  26123.26154628 -.00000280  00000+0  47872-6 0  9993", "line2": "2 52294  53.2186 214.1359 0001279  94.9141 265.1998 15.08840448222740"}, {"name": "STARLINK-3765", "line1": "1 52295U 22041AL  26123.27258917 -.00001026  00000+0 -46381-4 0  9993", "line2": "2 52295  53.2179 214.0869 0001081  84.1771 275.9345 15.08835672222747"}, {"name": "STARLINK-3766", "line1": "1 52296U 22041AM  26122.98554724 -.00000137  00000+0  94669-5 0  9990", "line2": "2 52296  53.2184 215.3809 0001158  94.8054 265.3070 15.08837618222705"}, {"name": "STARLINK-3758", "line1": "1 52297U 22041AN  26122.40778670 -.00000583  00000+0 -18536-4 0  9990", "line2": "2 52297  53.2188 217.9689 0001557 116.4028 243.7125 15.08837206222613"}, {"name": "STARLINK-3760", "line1": "1 52298U 22041AP  26123.27622183 -.00000771  00000+0 -30352-4 0  9993", "line2": "2 52298  53.2185 213.6837 0001065  80.7749 279.3364 15.08837661222756"}, {"name": "STARLINK-3769", "line1": "1 52300U 22041AR  26123.23946870  .00002369  00000+0  16692-3 0  9998", "line2": "2 52300  53.2173 214.2406 0001692  54.7961 305.3190 15.08839093223961"}, {"name": "STARLINK-3768", "line1": "1 52301U 22041AS  26123.25786466 -.00000183  00000+0  66236-5 0  9998", "line2": "2 52301  53.2170 214.1525 0001562  94.8996 265.2174 15.08840675222748"}, {"name": "STARLINK-3564", "line1": "1 52302U 22041AT  26123.22934026  .00000190  00000+0  30013-4 0  9993", "line2": "2 52302  53.2178 204.2822 0001231  87.0282 273.0851 15.08844524222872"}, {"name": "STARLINK-3742", "line1": "1 52303U 22041AU  26123.24314796  .00000411  00000+0  43913-4 0  9991", "line2": "2 52303  53.2177 214.2205 0001303  82.5556 277.5585 15.08838638223965"}, {"name": "STARLINK-3744", "line1": "1 52304U 22041AV  26122.96070275 -.00000242  00000+0  29091-5 0  9996", "line2": "2 52304  53.2166 205.4901 0001178  88.9242 271.1885 15.08841147222838"}, {"name": "STARLINK-3724", "line1": "1 52305U 22041AW  26122.98187776  .00000485  00000+0  48554-4 0  9996", "line2": "2 52305  53.2179 215.5015 0001294  86.5800 273.5340 15.08839586222706"}, {"name": "STARLINK-3747", "line1": "1 52306U 22041AX  26122.95702585 -.00000238  00000+0  31330-5 0  9997", "line2": "2 52306  53.2165 205.5056 0001166  92.3016 267.8110 15.08838718224055"}, {"name": "STARLINK-3755", "line1": "1 52307U 22041AY  26122.97082299 -.00000025  00000+0  16519-4 0  9998", "line2": "2 52307  53.2176 215.4398 0001147  93.0945 267.0178 15.08838395222702"}, {"name": "STARLINK-3756", "line1": "1 52309U 22041BA  26123.21830758  .00000000  00000+0  18087-4 0  9993", "line2": "2 52309  53.2177 204.3313 0001145  89.2035 270.9088 15.08841923224092"}, {"name": "STARLINK-3688", "line1": "1 52310U 22041BB  26123.21463453 -.00000007  00000+0  17666-4 0  9999", "line2": "2 52310  53.2154 204.4136 0001236  86.4370 273.6763 15.08839034224095"}, {"name": "STARLINK-3750", "line1": "1 52311U 22041BC  26122.94598921  .00002227  00000+0  15794-3 0  9992", "line2": "2 52311  53.2172 205.5558 0001284  87.0781 273.0358 15.08842825224054"}, {"name": "STARLINK-3752", "line1": "1 52312U 22041BD  26123.23669744 -.00000207  00000+0  50902-5 0  9997", "line2": "2 52312  53.2174 204.2008 0001384  91.0279 269.0872 15.08838307224103"}, {"name": "STARLINK-3749", "line1": "1 52313U 22041BE  26123.24038437  .00000109  00000+0  24939-4 0  9998", "line2": "2 52313  53.2183 204.2318 0001344  93.5377 266.5769 15.08837698224109"}]